{
    "links": {
        "self": "http://www.neowsapp.com/rest/v1/neo/3610529?api_key=iIulBulltgU6a56xZRHN4H3l9WmuAYTsLGpBGhQ2"
    },
    "id": "3610529",
    "neo_reference_id": "3610529",
    "name": "(2012 TR139)",
    "designation": "2012 TR139",
    "nasa_jpl_url": "http://ssd.jpl.nasa.gov/sbdb.cgi?sstr=3610529",
    "absolute_magnitude_h": 20.8,
    "estimated_diameter": {
        "kilometers": {
            "estimated_diameter_min": 0.1838886721,
            "estimated_diameter_max": 0.411187571
        },
        "meters": {
            "estimated_diameter_min": 183.8886720703,
            "estimated_diameter_max": 411.1875710413
        },
        "miles": {
            "estimated_diameter_min": 0.1142630881,
            "estimated_diameter_max": 0.2555000322
        },
        "feet": {
            "estimated_diameter_min": 603.309310875,
            "estimated_diameter_max": 1349.040630575
        }
    },
    "is_potentially_hazardous_asteroid": false,
    "close_approach_data": [
        {
            "close_approach_date": "2012-10-08",
            "close_approach_date_full": "2012-Oct-08 12:01",
            "epoch_date_close_approach": 1349697660000,
            "relative_velocity": {
                "kilometers_per_second": "27.4548371271",
                "kilometers_per_hour": "98837.4136575348",
                "miles_per_hour": "61413.7251695943"
            },
            "miss_distance": {
                "astronomical": "0.2687757699",
                "lunar": "104.5537744911",
                "kilometers": "40208282.684650113",
                "miles": "24984268.3243250394"
            },
            "orbiting_body": "Earth"
        }
    ],
    "orbital_data": {
        "orbit_id": "9",
        "orbit_determination_date": "2017-04-06 08:48:37",
        "first_observation_date": "2012-10-11",
        "last_observation_date": "2012-10-20",
        "data_arc_in_days": 9,
        "observations_used": 55,
        "orbit_uncertainty": "8",
        "minimum_orbit_intersection": ".20337",
        "jupiter_tisserand_invariant": "3.354",
        "epoch_osculation": "2456214.5",
        "eccentricity": ".3859766068045121",
        "semi_major_axis": "1.952454548965556",
        "inclination": "52.44441294144833",
        "ascending_node_longitude": "200.2490224019933",
        "orbital_period": "996.4828439162367",
        "perihelion_distance": "1.198852767215797",
        "perihelion_argument": "173.0106284542244",
        "aphelion_distance": "2.706056330715316",
        "perihelion_time": "2456195.217620070301",
        "mean_anomaly": "6.966157839115942",
        "mean_motion": ".3612706452478184",
        "equinox": "J2000",
        "orbit_class": {
            "orbit_class_type": "AMO",
            "orbit_class_description": "Near-Earth asteroid orbits similar to that of 1221 Amor",
            "orbit_class_range": "1.017 AU < q (perihelion) < 1.3 AU"
        }
    },
    "is_sentry_object": false
}